start=new Date('2021-10-20T00:00:00.000Z').valueOf();
sats=[{"MEAN_ANOMALY":"282.7397","MEAN_MOTION_DDOT":"0.0000000000000","REF_FRAME":"TEME","OBJECT_TYPE":"PAYLOAD","EPOCH":"2021-10-19T09:33:16.308288","OBJECT_ID":"2020-074J","COUNTRY_CODE":"US","CENTER_NAME":"EARTH","REV_AT_EPOCH":"5519","PERIAPSIS":"546.256","DECAY_DATE":null,"TLE_LINE2":"2 46747  53.0535 314.5791 0001307  77.3738 282.7397 15.06417108 55198","ELEMENT_SET_NO":"999","BSTAR":"0.00008149000000","ECCENTRICITY":"0.00013070","ARG_OF_PERICENTER":"77.3738","INCLINATION":"53.0535","FILE":"3171653","MEAN_MOTION":"15.06417108","TLE_LINE1":"1 46747U 20074J   21292.39810542  .00000933  00000-0  81490-4 0  9990","NORAD_CAT_ID":"46747","GP_ID":"187586379","EPHEMERIS_TYPE":"0","LAUNCH_DATE":"2020-10-24","APOAPSIS":"548.066","RA_OF_ASC_NODE":"314.5791","CLASSIFICATION_TYPE":"U","SITE":"AFETR","MEAN_ELEMENT_THEORY":"SGP4","PERIOD":"95.591","SEMIMAJOR_AXIS":"6925.296","RCS_SIZE":"LARGE","MEAN_MOTION_DOT":"0.00000933","TIME_SYSTEM":"UTC","OBJECT_NAME":"STARLINK-1908"},{"MEAN_ANOMALY":"321.1204","MEAN_MOTION_DDOT":"0.0000000000000","REF_FRAME":"TEME","EPOCH":"2021-10-19T11:19:25.830336","OBJECT_TYPE":"PAYLOAD","COUNTRY_CODE":"US","OBJECT_ID":"2020-074K","REV_AT_EPOCH":"5520","CENTER_NAME":"EARTH","PERIAPSIS":"546.163","BSTAR":"0.00000486370000","ECCENTRICITY":"0.00015170","ELEMENT_SET_NO":"999","TLE_LINE2":"2 46748  53.0552 314.2570 0001517  38.9895 321.1204 15.06399988 55202","DECAY_DATE":null,"ARG_OF_PERICENTER":"38.9895","MEAN_MOTION":"15.06399988","FILE":"3171656","INCLINATION":"53.0552","TLE_LINE1":"1 46748U 20074K   21292.47182674 -.00000209  00000-0  48637-5 0  9992","GP_ID":"187586927","NORAD_CAT_ID":"46748","LAUNCH_DATE":"2020-10-24","EPHEMERIS_TYPE":"0","APOAPSIS":"548.264","MEAN_ELEMENT_THEORY":"SGP4","SITE":"AFETR","CLASSIFICATION_TYPE":"U","RA_OF_ASC_NODE":"314.2570","RCS_SIZE":"LARGE","MEAN_MOTION_DOT":"-0.00000209","SEMIMAJOR_AXIS":"6925.349","PERIOD":"95.592","OBJECT_NAME":"STARLINK-1910","TIME_SYSTEM":"UTC"},{"PERIAPSIS":"546.289","REV_AT_EPOCH":"5519","CENTER_NAME":"EARTH","ARG_OF_PERICENTER":"73.5461","BSTAR":"0.00001535900000","ECCENTRICITY":"0.00012990","ELEMENT_SET_NO":"999","TLE_LINE2":"2 46749  53.0556 313.9220 0001299  73.5461 286.5671 15.06408028 55192","DECAY_DATE":null,"REF_FRAME":"TEME","MEAN_ANOMALY":"286.5671","MEAN_MOTION_DDOT":"0.0000000000000","COUNTRY_CODE":"US","OBJECT_ID":"2020-074L","EPOCH":"2021-10-19T13:05:34.832256","OBJECT_TYPE":"PAYLOAD","MEAN_ELEMENT_THEORY":"SGP4","SITE":"AFETR","RA_OF_ASC_NODE":"313.9220","CLASSIFICATION_TYPE":"U","APOAPSIS":"548.089","OBJECT_NAME":"STARLINK-1911","TIME_SYSTEM":"UTC","MEAN_MOTION_DOT":"-0.00000053","RCS_SIZE":"LARGE","SEMIMAJOR_AXIS":"6925.324","PERIOD":"95.592","TLE_LINE1":"1 46749U 20074L   21292.54554204 -.00000053  00000-0  15359-4 0  9994","FILE":"3171120","MEAN_MOTION":"15.06408028","INCLINATION":"53.0556","LAUNCH_DATE":"2020-10-24","EPHEMERIS_TYPE":"0","GP_ID":"187572295","NORAD_CAT_ID":"46749"},{"ARG_OF_PERICENTER":"70.3397","ECCENTRICITY":"0.00012660","BSTAR":"0.00011609000000","ELEMENT_SET_NO":"999","TLE_LINE2":"2 46751  53.0547 314.2441 0001266  70.3397 289.7729 15.06404896 55199","DECAY_DATE":null,"PERIAPSIS":"546.322","REV_AT_EPOCH":"5519","CENTER_NAME":"EARTH","COUNTRY_CODE":"US","OBJECT_ID":"2020-074N","EPOCH":"2021-10-19T11:24:45.630432","OBJECT_TYPE":"PAYLOAD","REF_FRAME":"TEME","MEAN_MOTION_DDOT":"0.0000000000000","MEAN_ANOMALY":"289.7729","OBJECT_NAME":"STARLINK-1920","TIME_SYSTEM":"UTC","RCS_SIZE":"LARGE","MEAN_MOTION_DOT":"0.00001448","SEMIMAJOR_AXIS":"6925.334","PERIOD":"95.592","MEAN_ELEMENT_THEORY":"SGP4","SITE":"AFETR","RA_OF_ASC_NODE":"314.2441","CLASSIFICATION_TYPE":"U","APOAPSIS":"548.075","LAUNCH_DATE":"2020-10-24","EPHEMERIS_TYPE":"0","NORAD_CAT_ID":"46751","GP_ID":"187588436","TLE_LINE1":"1 46751U 20074N   21292.47552813  .00001448  00000-0  11609-3 0  9994","MEAN_MOTION":"15.06404896","FILE":"3171739","INCLINATION":"53.0547"},{"REV_AT_EPOCH":"5519","CENTER_NAME":"EARTH","PERIAPSIS":"546.662","BSTAR":"0.00024638000000","ECCENTRICITY":"0.00007450","ELEMENT_SET_NO":"999","TLE_LINE2":"2 46752  53.0527 313.9020 0000745  28.3965 331.7064 15.06411679 55199","DECAY_DATE":null,"ARG_OF_PERICENTER":"28.3965","MEAN_ANOMALY":"331.7064","MEAN_MOTION_DDOT":"0.0000000000000","REF_FRAME":"TEME","EPOCH":"2021-10-19T13:16:13.270368","OBJECT_TYPE":"PAYLOAD","COUNTRY_CODE":"US","OBJECT_ID":"2020-074P","APOAPSIS":"547.694","MEAN_ELEMENT_THEORY":"SGP4","SITE":"AFETR","RA_OF_ASC_NODE":"313.9020","CLASSIFICATION_TYPE":"U","MEAN_MOTION_DOT":"0.00003392","RCS_SIZE":"LARGE","SEMIMAJOR_AXIS":"6925.313","PERIOD":"95.591","OBJECT_NAME":"STARLINK-1921","TIME_SYSTEM":"UTC","MEAN_MOTION":"15.06411679","FILE":"3172644","INCLINATION":"53.0527","TLE_LINE1":"1 46752U 20074P   21292.55293137  .00003392  00000-0  24638-3 0  9991","NORAD_CAT_ID":"46752","GP_ID":"187630842","LAUNCH_DATE":"2020-10-24","EPHEMERIS_TYPE":"0"},{"MEAN_ANOMALY":"281.8257","MEAN_MOTION_DDOT":"0.0000000000000","REF_FRAME":"TEME","OBJECT_TYPE":"PAYLOAD","EPOCH":"2021-10-19T14:03:59.080608","OBJECT_ID":"2020-074Q","COUNTRY_CODE":"US","CENTER_NAME":"EARTH","REV_AT_EPOCH":"5520","PERIAPSIS":"546.376","DECAY_DATE":null,"TLE_LINE2":"2 46753  53.0546 313.7370 0001172  78.2863 281.8257 15.06408358 55204","ELEMENT_SET_NO":"999","BSTAR":"0.00016935000000","ECCENTRICITY":"0.00011720","ARG_OF_PERICENTER":"78.2863","INCLINATION":"53.0546","MEAN_MOTION":"15.06408358","FILE":"3172644","TLE_LINE1":"1 46753U 20074Q   21292.58610047  .00002243  00000-0  16935-3 0  9993","NORAD_CAT_ID":"46753","GP_ID":"187631087","EPHEMERIS_TYPE":"0","LAUNCH_DATE":"2020-10-24","APOAPSIS":"548.000","RA_OF_ASC_NODE":"313.7370","CLASSIFICATION_TYPE":"U","SITE":"AFETR","MEAN_ELEMENT_THEORY":"SGP4","PERIOD":"95.592","SEMIMAJOR_AXIS":"6925.323","RCS_SIZE":"LARGE","MEAN_MOTION_DOT":"0.00002243","TIME_SYSTEM":"UTC","OBJECT_NAME":"STARLINK-1922"},{"EPHEMERIS_TYPE":"0","LAUNCH_DATE":"2020-10-24","NORAD_CAT_ID":"46754","GP_ID":"187630339","TLE_LINE1":"1 46754U 20074R   21292.72614553 -.00000086  00000-0  13097-4 0  9997","INCLINATION":"53.0541","MEAN_MOTION":"15.06407963","FILE":"3172644","TIME_SYSTEM":"UTC","OBJECT_NAME":"STARLINK-1923","PERIOD":"95.592","SEMIMAJOR_AXIS":"6925.324","MEAN_MOTION_DOT":"-0.00000086","RCS_SIZE":"LARGE","CLASSIFICATION_TYPE":"U","RA_OF_ASC_NODE":"313.1148","SITE":"AFETR","MEAN_ELEMENT_THEORY":"SGP4","APOAPSIS":"548.217","OBJECT_ID":"2020-074R","COUNTRY_CODE":"US","OBJECT_TYPE":"PAYLOAD","EPOCH":"2021-10-19T17:25:38.973792","REF_FRAME":"TEME","MEAN_MOTION_DDOT":"0.0000000000000","MEAN_ANOMALY":"280.4609","ARG_OF_PERICENTER":"79.6548","DECAY_DATE":null,"TLE_LINE2":"2 46754  53.0541 313.1148 0001484  79.6548 280.4609 15.06407963 55227","ELEMENT_SET_NO":"999","BSTAR":"0.00001309700000","ECCENTRICITY":"0.00014840","PERIAPSIS":"546.161","CENTER_NAME":"EARTH","REV_AT_EPOCH":"5522"},{"CENTER_NAME":"EARTH","REV_AT_EPOCH":"5511","PERIAPSIS":"546.361","TLE_LINE2":"2 46755  53.0532 319.2892 0001179  87.1316 272.9808 15.06411716 55115","DECAY_DATE":null,"BSTAR":"0.00004510200000","ECCENTRICITY":"0.00011790","ELEMENT_SET_NO":"999","ARG_OF_PERICENTER":"87.1316","MEAN_MOTION_DDOT":"0.0000000000000","MEAN_ANOMALY":"272.9808","REF_FRAME":"TEME","OBJECT_TYPE":"PAYLOAD","EPOCH":"2021-10-19T11:10:47.762112","OBJECT_ID":"2020-074S","COUNTRY_CODE":"US","APOAPSIS":"547.994","SITE":"AFETR","CLASSIFICATION_TYPE":"U","RA_OF_ASC_NODE":"319.2892","MEAN_ELEMENT_THEORY":"SGP4","PERIOD":"95.591","RCS_SIZE":"LARGE","MEAN_MOTION_DOT":"0.00000391","SEMIMAJOR_AXIS":"6925.313","TIME_SYSTEM":"UTC","OBJECT_NAME":"STARLINK-1924","MEAN_MOTION":"15.06411716","FILE":"3171120","INCLINATION":"53.0532","TLE_LINE1":"1 46755U 20074S   21292.46583058  .00000391  00000-0  45102-4 0  9994","NORAD_CAT_ID":"46755","GP_ID":"187571044","LAUNCH_DATE":"2020-10-24","EPHEMERIS_TYPE":"0"},{"PERIOD":"95.591","RCS_SIZE":"LARGE","MEAN_MOTION_DOT":"0.00000215","SEMIMAJOR_AXIS":"6925.315","TIME_SYSTEM":"UTC","OBJECT_NAME":"STARLINK-1925","APOAPSIS":"548.159","SITE":"AFETR","RA_OF_ASC_NODE":"319.3092","CLASSIFICATION_TYPE":"U","MEAN_ELEMENT_THEORY":"SGP4","NORAD_CAT_ID":"46756","GP_ID":"187588406","LAUNCH_DATE":"2020-10-24","EPHEMERIS_TYPE":"0","FILE":"3171742","MEAN_MOTION":"15.06410788","INCLINATION":"53.0535","TLE_LINE1":"1 46756U 20074T   21292.45751596  .00000215  00000-0  33349-4 0  9993","TLE_LINE2":"2 46756  53.0535 319.3092 0001413  83.6405 276.4745 15.06410788 55132","DECAY_DATE":null,"BSTAR":"0.00003334900000","ECCENTRICITY":"0.00014130","ELEMENT_SET_NO":"999","ARG_OF_PERICENTER":"83.6405","CENTER_NAME":"EARTH","REV_AT_EPOCH":"5513","PERIAPSIS":"546.202","OBJECT_TYPE":"PAYLOAD","EPOCH":"2021-10-19T10:58:49.378944","OBJECT_ID":"2020-074T","COUNTRY_CODE":"US","MEAN_ANOMALY":"276.4745","MEAN_MOTION_DDOT":"0.0000000000000","REF_FRAME":"TEME"},{"INCLINATION":"53.0554","FILE":"3172644","MEAN_MOTION":"15.06423309","TLE_LINE1":"1 46757U 20074U   21292.55335587  .00000092  00000-0  25026-4 0  9999","GP_ID":"187631587","NORAD_CAT_ID":"46757","EPHEMERIS_TYPE":"0","LAUNCH_DATE":"2020-10-24","APOAPSIS":"548.032","MEAN_ELEMENT_THEORY":"SGP4","CLASSIFICATION_TYPE":"U","RA_OF_ASC_NODE":"318.8987","SITE":"AFETR","SEMIMAJOR_AXIS":"6925.277","MEAN_MOTION_DOT":"0.00000092","RCS_SIZE":"LARGE","PERIOD":"95.591","OBJECT_NAME":"STARLINK-1926","TIME_SYSTEM":"UTC","MEAN_MOTION_DDOT":"0.0000000000000","MEAN_ANOMALY":"283.6270","REF_FRAME":"TEME","EPOCH":"2021-10-19T13:16:49.947168","OBJECT_TYPE":"PAYLOAD","COUNTRY_CODE":"US","OBJECT_ID":"2020-074U","REV_AT_EPOCH":"5512","CENTER_NAME":"EARTH","PERIAPSIS":"546.252","ELEMENT_SET_NO":"999","BSTAR":"0.00002502600000","ECCENTRICITY":"0.00012850","DECAY_DATE":null,"TLE_LINE2":"2 46757  53.0554 318.8987 0001285  76.4863 283.6270 15.06423309 55121","ARG_OF_PERICENTER":"76.4863"}];
